{"type": "FeatureCollection", "features": [ {"type": "Feature", "properties": {"norad_id": 43107, "name": "BEIDOU-3 M7 (C27)", "group": "gnss", "lat": 15.7231172845341, "lon": -39.763475713393134, "alt_km": 21521.450755113372, "timestamp": "2025-12-16T19:34:24.509914+00:00", "meta": {"OBJECT_NAME": "BEIDOU-3 M7 (C27)", "OBJECT_ID": "2018-003A", "EPOCH": "2025-12-13T13:33:25.741728", "MEAN_MOTION": 1.86232202, "ECCENTRICITY": 0.00026561, "INCLINATION": 54.4958, "RA_OF_ASC_NODE": 308.7854, "ARG_OF_PERICENTER": 70.3198, "MEAN_ANOMALY": 289.6984, "EPHEMERIS_TYPE": 0, "CLASSIFICATION_TYPE": "U", "NORAD_CAT_ID": 43107, "ELEMENT_SET_NO": 999, "REV_AT_EPOCH": 5389, "BSTAR": 0, "MEAN_MOTION_DOT": -9.8e-07, "MEAN_MOTION_DDOT": 0}, "tle": {"line1": "1 43107U 18003A   25347.56488127 -.00000098  00000+0  00000+0 0  9995", "line2": "2 43107  54.4958 308.7854 0002656  70.3198 289.6984  1.86232202 53891"}}, "geometry": {"type": "Point", "coordinates": [-39.763475713393134, 15.7231172845341]}}, {"type": "Feature", "properties": {"norad_id": 43108, "name": "BEIDOU-3 M8 (C28)", "group": "gnss", "lat": 42.65572694098627, "lon": -10.258313168847376, "alt_km": 21533.083414604025, "timestamp": "2025-12-16T19:34:24.509927+00:00", "meta": {"OBJECT_NAME": "BEIDOU-3 M8 (C28)", "OBJECT_ID": "2018-003B", "EPOCH": "2025-12-15T15:46:56.352288", "MEAN_MOTION": 1.86230781, "ECCENTRICITY": 0.00047156, "INCLINATION": 54.4868, "RA_OF_ASC_NODE": 308.6954, "ARG_OF_PERICENTER": 275.6738, "MEAN_ANOMALY": 84.2592, "EPHEMERIS_TYPE": 0, "CLASSIFICATION_TYPE": "U", "NORAD_CAT_ID": 43108, "ELEMENT_SET_NO": 999, "REV_AT_EPOCH": 5394, "BSTAR": 0, "MEAN_MOTION_DOT": -9.9e-07, "MEAN_MOTION_DDOT": 0}, "tle": {"line1": "1 43108U 18003B   25349.65759667 -.00000099  00000+0  00000+0 0  9999", "line2": "2 43108  54.4868 308.6954 0004715 275.6738  84.2592  1.86230781 53940"}}, "geometry": {"type": "Point", "coordinates": [-10.258313168847376, 42.65572694098627]}}, {"type": "Feature", "properties": {"norad_id": 43207, "name": "BEIDOU-3 M4 (C22)", "group": "gnss", "lat": 46.16491776458412, "lon": -154.37401100172173, "alt_km": 21526.898451500267, "timestamp": "2025-12-16T19:34:24.509938+00:00", "meta": {"OBJECT_NAME": "BEIDOU-3 M4 (C22)", "OBJECT_ID": "2018-018A", "EPOCH": "2025-12-13T09:57:17.275392", "MEAN_MOTION": 1.86231174, "ECCENTRICITY": 0.00041262, "INCLINATION": 56.4868, "RA_OF_ASC_NODE": 69.2813, "ARG_OF_PERICENTER": 7.8207, "MEAN_ANOMALY": 352.2039, "EPHEMERIS_TYPE": 0, "CLASSIFICATION_TYPE": "U", "NORAD_CAT_ID": 43207, "ELEMENT_SET_NO": 999, "REV_AT_EPOCH": 5328, "BSTAR": 0, "MEAN_MOTION_DOT": -7.8e-07, "MEAN_MOTION_DDOT": 0}, "tle": {"line1": "1 43207U 18018A   25347.41478328 -.00000078  00000+0  00000+0 0  9996", "line2": "2 43207  56.4868  69.2813 0004126   7.8207 352.2039  1.86231174 53286"}}, "geometry": {"type": "Point", "coordinates": [-154.37401100172173, 46.16491776458412]}}, {"type": "Feature", "properties": {"norad_id": 43208, "name": "BEIDOU-3 M3 (C21)", "group": "gnss", "lat": 53.83901659622963, "lon": 134.0359246208304, "alt_km": 21530.465029786377, "timestamp": "2025-12-16T19:34:24.509950+00:00", "meta": {"OBJECT_NAME": "BEIDOU-3 M3 (C21)", "OBJECT_ID": "2018-018B", "EPOCH": "2025-12-10T19:07:00.567840", "MEAN_MOTION": 1.8623124, "ECCENTRICITY": 0.0006564, "INCLINATION": 56.484, "RA_OF_ASC_NODE": 69.3721, "ARG_OF_PERICENTER": 317.0111, "MEAN_ANOMALY": 42.9593, "EPHEMERIS_TYPE": 0, "CLASSIFICATION_TYPE": "U", "NORAD_CAT_ID": 43208, "ELEMENT_SET_NO": 999, "REV_AT_EPOCH": 5323, "BSTAR": 0, "MEAN_MOTION_DOT": -5.7e-07, "MEAN_MOTION_DDOT": 0}, "tle": {"line1": "1 43208U 18018B   25344.79653435 -.00000057  00000+0  00000+0 0  9996", "line2": "2 43208  56.4840  69.3721 0006564 317.0111  42.9593  1.86231240 53231"}}, "geometry": {"type": "Point", "coordinates": [134.0359246208304, 53.83901659622963]}}, {"type": "Feature", "properties": {"norad_id": 43245, "name": "BEIDOU-3 M9 (C29)", "group": "gnss", "lat": -49.5833227129226, "lon": -111.02855681489982, "alt_km": 21529.555100289832, "timestamp": "2025-12-16T19:34:24.509962+00:00", "meta": {"OBJECT_NAME": "BEIDOU-3 M9 (C29)", "OBJECT_ID": "2018-029A", "EPOCH": "2025-12-15T07:24:03.092832", "MEAN_MOTION": 1.86228295, "ECCENTRICITY": 0.00015379, "INCLINATION": 54.363, "RA_OF_ASC_NODE": 306.3776, "ARG_OF_PERICENTER": 283.4598, "MEAN_ANOMALY": 76.5102, "EPHEMERIS_TYPE": 0, "CLASSIFICATION_TYPE": "U", "NORAD_CAT_ID": 43245, "ELEMENT_SET_NO": 999, "REV_AT_EPOCH": 5247, "BSTAR": 0, "MEAN_MOTION_DOT": -9.9e-07, "MEAN_MOTION_DDOT": 0}, "tle": {"line1": "1 43245U 18029A   25349.30836913 -.00000099  00000+0  00000+0 0  9991", "line2": "2 43245  54.3630 306.3776 0001537 283.4598  76.5102  1.86228295 52470"}}, "geometry": {"type": "Point", "coordinates": [-111.02855681489982, -49.5833227129226]}}, {"type": "Feature", "properties": {"norad_id": 43246, "name": "BEIDOU-3 M10 (C30)", "group": "gnss", "lat": -20.961703593152276, "lon": -69.61188759752378, "alt_km": 21520.90028530194, "timestamp": "2025-12-16T19:34:24.509973+00:00", "meta": {"OBJECT_NAME": "BEIDOU-3 M10 (C30)", "OBJECT_ID": "2018-029B", "EPOCH": "2025-12-15T05:50:48.210720", "MEAN_MOTION": 1.86228929, "ECCENTRICITY": 0.00041103, "INCLINATION": 54.3606, "RA_OF_ASC_NODE": 306.4069, "ARG_OF_PERICENTER": 1.1805, "MEAN_ANOMALY": 358.8077, "EPHEMERIS_TYPE": 0, "CLASSIFICATION_TYPE": "U", "NORAD_CAT_ID": 43246, "ELEMENT_SET_NO": 999, "REV_AT_EPOCH": 5245, "BSTAR": 0, "MEAN_MOTION_DOT": -9.9e-07, "MEAN_MOTION_DDOT": 0}, "tle": {"line1": "1 43246U 18029B   25349.24361355 -.00000099  00000+0  00000+0 0  9998", "line2": "2 43246  54.3606 306.4069 0004110   1.1805 358.8077  1.86228929 52455"}}, "geometry": {"type": "Point", "coordinates": [-69.61188759752378, -20.961703593152276]}}, {"type": "Feature", "properties": {"norad_id": 43286, "name": "IRNSS-1I", "group": "gnss", "lat": -1.2997117320129257, "lon": 74.67719969296701, "alt_km": 35877.80223057356, "timestamp": "2025-12-16T19:34:24.509985+00:00", "meta": {"OBJECT_NAME": "IRNSS-1I", "OBJECT_ID": "2018-035A", "EPOCH": "2025-12-14T19:56:38.641056", "MEAN_MOTION": 1.00272129, "ECCENTRICITY": 0.00217173, "INCLINATION": 29.1546, "RA_OF_ASC_NODE": 77.0653, "ARG_OF_PERICENTER": 182.6132, "MEAN_ANOMALY": 178.227, "EPHEMERIS_TYPE": 0, "CLASSIFICATION_TYPE": "U", "NORAD_CAT_ID": 43286, "ELEMENT_SET_NO": 999, "REV_AT_EPOCH": 2823, "BSTAR": 0, "MEAN_MOTION_DOT": 8.4e-07, "MEAN_MOTION_DDOT": 0}, "tle": {"line1": "1 43286U 18035A   25348.83100279  .00000084  00000+0  00000+0 0  9992", "line2": "2 43286  29.1546  77.0653 0021717 182.6132 178.2270  1.00272129 28237"}}, "geometry": {"type": "Point", "coordinates": [74.67719969296701, -1.2997117320129257]}}, {"type": "Feature", "properties": {"norad_id": 43508, "name": "COSMOS 2527 (756)", "group": "gnss", "lat": -26.87267146014504, "lon": -86.64462163315775, "alt_km": 19112.34214431069, "timestamp": "2025-12-16T19:34:24.509999+00:00", "meta": {"OBJECT_NAME": "COSMOS 2527 (756)", "OBJECT_ID": "2018-053A", "EPOCH": "2025-12-13T17:26:08.291904", "MEAN_MOTION": 2.13102046, "ECCENTRICITY": 0.00086624, "INCLINATION": 65.4732, "RA_OF_ASC_NODE": 80.0985, "ARG_OF_PERICENTER": 225.2125, "MEAN_ANOMALY": 134.7297, "EPHEMERIS_TYPE": 0, "CLASSIFICATION_TYPE": "U", "NORAD_CAT_ID": 43508, "ELEMENT_SET_NO": 999, "REV_AT_EPOCH": 5832, "BSTAR": 0, "MEAN_MOTION_DOT": -4.9e-07, "MEAN_MOTION_DDOT": 0}, "tle": {"line1": "1 43508U 18053A   25347.72648486 -.00000049  00000+0  00000+0 0  9995", "line2": "2 43508  65.4732  80.0985 0008662 225.2125 134.7297  2.13102046 58320"}}, "geometry": {"type": "Point", "coordinates": [-86.64462163315775, -26.87267146014504]}}, {"type": "Feature", "properties": {"norad_id": 43539, "name": "BEIDOU-2 IGSO-7 (C16)", "group": "gnss", "lat": -27.013649396988143, "lon": 143.80416839759644, "alt_km": 35798.09537146349, "timestamp": "2025-12-16T19:34:24.510011+00:00", "meta": {"OBJECT_NAME": "BEIDOU-2 IGSO-7 (C16)", "OBJECT_ID": "2018-057A", "EPOCH": "2025-12-15T07:47:07.120608", "MEAN_MOTION": 1.00256546, "ECCENTRICITY": 0.00926218, "INCLINATION": 55.1766, "RA_OF_ASC_NODE": 164.6485, "ARG_OF_PERICENTER": 235.2644, "MEAN_ANOMALY": 271.8458, "EPHEMERIS_TYPE": 0, "CLASSIFICATION_TYPE": "U", "NORAD_CAT_ID": 43539, "ELEMENT_SET_NO": 999, "REV_AT_EPOCH": 2728, "BSTAR": 0, "MEAN_MOTION_DOT": -2.3e-07, "MEAN_MOTION_DDOT": 0}, "tle": {"line1": "1 43539U 18057A   25349.32438797 -.00000023  00000+0  00000+0 0  9995", "line2": "2 43539  55.1766 164.6485 0092621 235.2644 271.8458  1.00256546 27289"}}, "geometry": {"type": "Point", "coordinates": [143.80416839759644, -27.013649396988143]}}, {"type": "Feature", "properties": {"norad_id": 43564, "name": "GSAT0221 (GALILEO 25)", "group": "gnss", "lat": 52.35352413385934, "lon": 110.06135282072854, "alt_km": 23235.69373741316, "timestamp": "2025-12-16T19:34:24.510024+00:00", "meta": {"OBJECT_NAME": "GSAT0221 (GALILEO 25)", "OBJECT_ID": "2018-060A", "EPOCH": "2025-12-13T16:53:40.160256", "MEAN_MOTION": 1.70475883, "ECCENTRICITY": 0.00067122, "INCLINATION": 57.2276, "RA_OF_ASC_NODE": 346.7914, "ARG_OF_PERICENTER": 283.6018, "MEAN_ANOMALY": 76.3423, "EPHEMERIS_TYPE": 0, "CLASSIFICATION_TYPE": "U", "NORAD_CAT_ID": 43564, "ELEMENT_SET_NO": 999, "REV_AT_EPOCH": 4600, "BSTAR": 0, "MEAN_MOTION_DOT": -8.5e-07, "MEAN_MOTION_DDOT": 0}, "tle": {"line1": "1 43564U 18060A   25347.70393704 -.00000085  00000+0  00000+0 0  9993", "line2": "2 43564  57.2276 346.7914 0006712 283.6018  76.3423  1.70475883 46009"}}, "geometry": {"type": "Point", "coordinates": [110.06135282072854, 52.35352413385934]}}]}